NORAD_CAT_ID,OBJECT_NAME,OBJECT_TYPE,EPOCH,MEAN_MOTION,ECCENTRICITY,INCLINATION,RA_OF_ASC_NODE,ARG_OF_PERICENTER,MEAN_ANOMALY,BSTAR,MEAN_MOTION_DOT,MEAN_MOTION_DDOT,TLE_LINE0,TLE_LINE1,TLE_LINE2,SEMIMAJOR_AXIS,PERIOD,APOGEE,PERIGEE,DECAYED
49753.0,STARLINK-3200,PAYLOAD,2022-12-02 01:50:40,15.08839871,0.00019,53.2164,107.4717,50.7972,309.3189,-3.1443e-06,-3.38e-06,0.0,0 STARLINK-3200,1 49753U 21115AF  22336.07685864 -.00000338  00000-0 -31443-5 0  9994,2 49753  53.2164 107.4717 0001900  50.7972 309.3189 15.08839871 56451,6917.880999999999,95.438,541.06,538.431,0.0
49753.0,STARLINK-3200,PAYLOAD,2022-12-02 19:19:55,15.08830789,0.0001877,53.2175,104.2015,50.7997,309.3161,-7.1995e-06,-4.03e-06,0.0,0 STARLINK-3200,1 49753U 21115AF  22336.80550778 -.00000403  00000-0 -71995-5 0  9999,2 49753  53.2175 104.2015 0001877  50.7997 309.3161 15.08830789 56560,6917.909000000002,95.438,541.072,538.475,0.0
49753.0,STARLINK-3200,PAYLOAD,2022-12-03 01:41:27,15.08839559,0.0001905,53.217,103.0111,46.8848,313.2304,4.0283e-05,3.53e-06,0.0,0 STARLINK-3200,1 49753U 21115AF  22337.07046183  .00000353  00000-0  40283-4 0  9996,2 49753  53.2170 103.0111 0001905  46.8848 313.2304 15.08839559 56604,6917.882,95.438,541.065,538.429,0.0
49753.0,STARLINK-3200,PAYLOAD,2022-12-03 12:49:09,15.08835061,0.0001685,53.2165,100.93,40.5146,319.5972,9.2034e-05,1.177e-05,0.0,0 STARLINK-3200,1 49753U 21115AF  22337.53414205  .00001177  00000-0  92034-4 0  9997,2 49753  53.2165 100.9300 0001685  40.5146 319.5972 15.08835061 55569,6917.895,95.438,540.9259999999998,538.595,0.0
49753.0,STARLINK-3200,PAYLOAD,2022-12-03 17:35:19,15.08834308,0.000174,53.2165,100.0379,39.7977,320.3142,8.0213e-05,9.89e-06,0.0,0 STARLINK-3200,1 49753U 21115AF  22337.73286402  .00000989  00000-0  80213-4 0  9991,2 49753  53.2165 100.0379 0001740  39.7977 320.3142 15.08834308 55595,6917.898,95.438,540.967,538.559,0.0
49753.0,STARLINK-3200,PAYLOAD,2022-12-04 07:53:47,15.08837841,0.0001615,53.2165,97.3615,36.2479,323.8622,0.0001262,1.721e-05,0.0,0 STARLINK-3200,1 49753U 21115AF  22338.32902120  .00001721  00000-0  12620-3 0  9990,2 49753  53.2165  97.3615 0001615  36.2479 323.8622 15.08837841 56795,6917.887,95.438,540.869,538.635,0.0
49753.0,STARLINK-3200,PAYLOAD,2022-12-04 14:15:19,15.08842548,0.0001515,53.2163,96.1721,34.2067,325.9023,0.00013699,1.893e-05,0.0,0 STARLINK-3200,1 49753U 21115AF  22338.59397725  .00001893  00000-0  13699-3 0  9995,2 49753  53.2163  96.1721 0001515  34.2067 325.9023 15.08842548 55728,6917.873000000001,95.437,540.786,538.69,0.0
49753.0,STARLINK-3200,PAYLOAD,2022-12-05 07:44:34,15.08842496,0.0002149,53.2164,92.9015,42.1048,318.0109,7.2659e-05,8.68e-06,0.0,0 STARLINK-3200,1 49753U 21115AF  22339.32262160  .00000868  00000-0  72659-4 0  9994,2 49753  53.2164  92.9015 0002149  42.1048 318.0109 15.08842496 55832,6917.873000000001,95.437,541.224,538.251,0.0
49753.0,STARLINK-3200,PAYLOAD,2022-12-05 14:06:07,15.08840543,0.0001864,53.2164,91.7119,40.257,319.856,5.3545e-05,5.64e-06,0.0,0 STARLINK-3200,1 49753U 21115AF  22339.58758211  .00000564  00000-0  53545-4 0  9995,2 49753  53.2164  91.7119 0001864  40.2570 319.8560 15.08840543 56984,6917.879,95.438,541.033,538.4540000000002,0.0
49753.0,STARLINK-3200,PAYLOAD,2022-12-05 18:52:16,15.08844527,0.0001909,53.2166,90.82,40.5234,319.59,0.00011291,1.509e-05,0.0,0 STARLINK-3200,1 49753U 21115AF  22339.78629802  .00001509  00000-0  11291-3 0  9991,2 49753  53.2166  90.8200 0001909  40.5234 319.5900 15.08844527 55909,6917.8669999999975,95.437,541.052,538.411,0.0
49753.0,STARLINK-3200,PAYLOAD,2022-12-06 01:13:48,15.08850778,0.0001896,53.2165,89.6303,41.2566,318.857,0.00015908,2.245e-05,0.0,0 STARLINK-3200,1 49753U 21115AF  22340.05125208  .00002245  00000-0  15908-3 0  9991,2 49753  53.2165  89.6303 0001896  41.2566 318.8570 15.08850778 57057,6917.847,95.437,541.024,538.401,0.0
49753.0,STARLINK-3200,PAYLOAD,2022-12-06 13:56:53,15.08849278,0.0002121,53.2157,87.2508,52.3024,307.8161,6.8487e-05,8.02e-06,0.0,0 STARLINK-3200,1 49753U 21115AF  22340.58117449  .00000802  00000-0  68487-4 0  9995,2 49753  53.2157  87.2508 0002121  52.3024 307.8161 15.08849278 57139,6917.852,95.437,541.184,538.25,0.0
49753.0,STARLINK-3200,PAYLOAD,2022-12-06 18:43:03,15.08836968,0.0001898,53.217,86.3602,40.2494,319.8638,-4.2834e-05,-9.7e-06,0.0,0 STARLINK-3200,1 49753U 21115AF  22340.77990343 -.00000970  00000-0 -42834-4 0  9994,2 49753  53.2170  86.3602 0001898  40.2494 319.8638 15.08836968 56050,6917.89,95.438,541.068,538.442,0.0
49753.0,STARLINK-3200,PAYLOAD,2022-12-07 16:58:27,15.08832644,0.0001986,53.2173,82.1971,39.3569,320.7568,-1.1453e-06,-3.06e-06,0.0,0 STARLINK-3200,1 49753U 21115AF  22341.70726721 -.00000306  00000-0 -11453-5 0  9992,2 49753  53.2173  82.1971 0001986  39.3569 320.7568 15.08832644 56191,6917.903,95.438,541.1419999999998,538.394,0.0
49753.0,STARLINK-3200,PAYLOAD,2022-12-07 23:20:00,15.08831883,0.0002057,53.2175,81.0069,42.8472,317.268,-5.7018e-05,-1.195e-05,0.0,0 STARLINK-3200,1 49753U 21115AF  22341.97223138 -.00001195  00000-0 -57018-4 0  9998,2 49753  53.2175  81.0069 0002057  42.8472 317.2680 15.08831883 57349,6917.905,95.438,541.193,538.347,0.0
49753.0,STARLINK-3200,PAYLOAD,2022-12-08 13:38:27,15.08848097,0.0002076,53.2172,78.3317,44.9194,315.1966,0.00014876,2.081e-05,0.0,0 STARLINK-3200,1 49753U 21115AF  22342.56837401  .00002081  00000-0  14876-3 0  9995,2 49753  53.2172  78.3317 0002076  44.9194 315.1966 15.08848097 56322,6917.856,95.437,541.1569999999998,538.284,0.0
49753.0,STARLINK-3200,PAYLOAD,2022-12-08 23:10:44,15.08870111,0.0001274999999999,53.218,76.5487,25.6016,334.5039,0.00036272,5.494e-05,0.0,0 STARLINK-3200,1 49753U 21115AF  22342.96578932  .00005494  00000-0  36272-3 0  9995,2 49753  53.2180  76.5487 0001275  25.6016 334.5039 15.08870111 57495,6917.788000000001,95.436,540.535,538.771,0.0
49753.0,STARLINK-3200,PAYLOAD,2022-12-09 07:07:45,15.08789642,0.0002487,53.2181,75.0628,10.3693,349.735,-0.00032802,-5.498e-05,0.0,0 STARLINK-3200,1 49753U 21115AF  22343.29705937 -.00005498  00000-0 -32802-3 0  9990,2 49753  53.2181  75.0628 0002487  10.3693 349.7350 15.08789642 57543,6918.034000000002,95.441,541.62,538.179,0.0
49753.0,STARLINK-3200,PAYLOAD,2022-12-10 05:23:09,15.08789612,0.0001664,53.2185,70.899,329.7305,30.3591,-2.1844e-05,-6.35e-06,0.0,0 STARLINK-3200,1 49753U 21115AF  22344.22441764 -.00000635  00000-0 -21844-4 0  9992,2 49753  53.2185  70.8990 0001664 329.7305  30.3591 15.08789612 57687,6918.034000000002,95.441,541.0509999999998,538.748,0.0
49753.0,STARLINK-3200,PAYLOAD,2022-12-10 13:20:03,15.08838425,0.0002334,53.2186,69.411,39.1118,321.0043,-5.1845e-05,-1.113e-05,0.0,0 STARLINK-3200,1 49753U 21115AF  22344.55559799 -.00001113  00000-0 -51845-4 0  9992,2 49753  53.2186  69.4110 0002334  39.1118 321.0043 15.08838425 57730,6917.885,95.438,541.365,538.136,0.0
49753.0,STARLINK-3200,PAYLOAD,2022-12-10 18:06:12,15.08844285,0.0001855,53.2169,68.5166,36.5417,323.5702,-4.5575e-07,-2.95e-06,0.0,0 STARLINK-3200,1 49753U 21115AF  22344.75431088 -.00000295  00000-0 -45575-6 0  9999,2 49753  53.2169  68.5166 0001855  36.5417 323.5702 15.08844285 57765,6917.8669999999975,95.437,541.016,538.4490000000002,0.0
49753.0,STARLINK-3200,PAYLOAD,2022-12-11 11:35:26,15.08844634,0.0001884,53.2176,65.2445,51.2453,308.8707,0.00011036,1.469e-05,0.0,0 STARLINK-3200,1 49753U 21115AF  22345.48294940  .00001469  00000-0  11036-3 0  9998,2 49753  53.2176  65.2445 0001884  51.2453 308.8707 15.08844634 56761,6917.866,95.437,541.035,538.428,0.0
49753.0,STARLINK-3200,PAYLOAD,2022-12-11 13:10:50,15.08832122,0.0002527,53.2174,64.9504,33.3229,326.7922,0.00019378,2.796e-05,0.0,0 STARLINK-3200,1 49753U 21115AF  22345.54919383  .00002796  00000-0  19378-3 0  9991,2 49753  53.2174  64.9504 0002527  33.3229 326.7922 15.08832122 57889,6917.904,95.438,541.518,538.021,0.0
49753.0,STARLINK-3200,PAYLOAD,2022-12-12 11:26:14,15.08833356,0.0002579,53.2179,60.7875,34.95,325.1661,0.00018902,2.721e-05,0.0,0 STARLINK-3200,1 49753U 21115AF  22346.47655944  .00002721  00000-0  18902-3 0  9994,2 49753  53.2179  60.7875 0002579  34.9500 325.1661 15.08833356 56911,6917.901,95.438,541.55,537.982,0.0
49753.0,STARLINK-3200,PAYLOAD,2022-12-12 14:37:00,15.08835965,0.000253,53.2177,60.1924,35.3725,324.7435,0.00019263,2.778e-05,0.0,0 STARLINK-3200,1 49753U 21115AF  22346.60903774  .00002778  00000-0  19263-3 0  9999,2 49753  53.2177  60.1924 0002530  35.3725 324.7435 15.08835965 58047,6917.893,95.438,541.508,538.007,0.0
49753.0,STARLINK-3200,PAYLOAD,2022-12-13 11:17:01,15.08839661,0.0002182,53.2192,56.3248,47.4392,312.6784,-5.338e-05,-1.138e-05,0.0,0 STARLINK-3200,1 49753U 21115AF  22347.47016037 -.00001138  00000-0 -53380-4 0  9992,2 49753  53.2192  56.3248 0002182  47.4392 312.6784 15.08839661 57068,6917.880999999999,95.438,541.256,538.237,0.0
49753.0,STARLINK-3200,PAYLOAD,2022-12-13 16:03:11,15.08839895,0.0002386,53.2166,55.4331,37.8024,322.3135,-3.4925e-05,-8.44e-06,0.0,0 STARLINK-3200,1 49753U 21115AF  22347.66887971 -.00000844  00000-0 -34925-4 0  9993,2 49753  53.2166  55.4331 0002386  37.8024 322.3135 15.08839895 58207,6917.880999999999,95.438,541.396,538.095,0.0
49753.0,STARLINK-3200,PAYLOAD,2022-12-14 11:07:48,15.08845277,0.0002225,53.2167,51.8648,37.6488,322.466,2.8745e-05,1.69e-06,0.0,0 STARLINK-3200,1 49753U 21115AF  22348.46375302  .00000169  00000-0  28745-4 0  9993,2 49753  53.2167  51.8648 0002225  37.6488 322.4660 15.08845277 58321,6917.864000000001,95.437,541.268,538.19,0.0
49753.0,STARLINK-3200,PAYLOAD,2022-12-15 04:37:03,15.08833947,0.0002266,53.2166,48.5944,38.1897,321.9256,7.9668e-05,9.8e-06,0.0,0 STARLINK-3200,1 49753U 21115AF  22349.19239863  .00000980  00000-0  79668-4 0  9996,2 49753  53.2166  48.5944 0002266  38.1897 321.9256 15.08833947 58435,6917.899,95.438,541.331,538.196,0.0
